NORAD_CAT_ID,OBJECT_NAME,OBJECT_TYPE,EPOCH,MEAN_MOTION,ECCENTRICITY,INCLINATION,RA_OF_ASC_NODE,ARG_OF_PERICENTER,MEAN_ANOMALY,BSTAR,MEAN_MOTION_DOT,MEAN_MOTION_DDOT,TLE_LINE0,TLE_LINE1,TLE_LINE2,SEMIMAJOR_AXIS,PERIOD,APOGEE,PERIGEE,DECAYED
53390.0,STARLINK-4517,PAYLOAD,2023-09-20 03:01:37,15.08849553,0.0002007,53.2162,211.3949,138.3787,221.7358,0.00068149,0.00010577,0.0,0 STARLINK-4517,1 53390U 22097C   23263.12612482  .00010577  00000-0  68149-3 0  9993,2 53390  53.2162 211.3949 0002007 138.3787 221.7358 15.08849553 61919,6917.851,95.437,541.105,538.328,0.0
53390.0,STARLINK-4517,PAYLOAD,2023-09-20 14:09:18,15.08861133,0.0001497,53.216,209.3149,113.0684,247.0466,0.00093631,0.00014653,0.0,0 STARLINK-4517,1 53390U 22097C   23263.58980235  .00014653  00000-0  93631-3 0  9990,2 53390  53.2160 209.3149 0001497 113.0684 247.0466 15.08861133 62789,6917.816,95.436,540.716,538.645,0.0
53390.0,STARLINK-4517,PAYLOAD,2023-09-20 20:30:52,15.08827825,0.0001423,53.2164,208.1261,100.5439,259.5714,0.00054731,8.43e-05,0.0,0 STARLINK-4517,1 53390U 22097C   23263.85477708  .00008430  00000-0  54731-3 0  9990,2 53390  53.2164 208.1261 0001423 100.5439 259.5714 15.08827825 62822,6917.918,95.438,540.767,538.798,0.0
53390.0,STARLINK-4517,PAYLOAD,2023-09-21 01:17:02,15.08826393,0.0001522,53.2174,207.2334,120.4119,239.7023,0.00057777,8.916e-05,0.0,0 STARLINK-4517,1 53390U 22097C   23264.05349897  .00008916  00000-0  57777-3 0  9992,2 53390  53.2174 207.2334 0001522 120.4119 239.7023 15.08826393 62057,6917.922,95.438,540.84,538.734,0.0
53390.0,STARLINK-4517,PAYLOAD,2023-09-21 06:03:11,15.08829,0.0001374,53.2159,206.3417,112.3915,247.7223,0.00078376,0.00012204,0.0,0 STARLINK-4517,1 53390U 22097C   23264.25222206  .00012204  00000-0  78376-3 0  9991,2 53390  53.2159 206.3417 0001374 112.3915 247.7223 15.08829000 62881,6917.914,95.438,540.73,538.828,0.0
53390.0,STARLINK-4517,PAYLOAD,2023-09-22 02:43:12,15.08858856,0.0001054,53.2158,202.4767,93.0292,267.0821,0.0011137,0.0001749,0.0,0 STARLINK-4517,1 53390U 22097C   23265.11333984  .00017490  00000-0  11137-2 0  9996,2 53390  53.2158 202.4767 0001054  93.0292 267.0821 15.08858856 62210,6917.823,95.436,540.417,538.959,0.0
53390.0,STARLINK-4517,PAYLOAD,2023-09-22 20:12:26,15.08859771,8.27e-05,53.2159,199.2059,86.4606,273.6481,0.00079956,0.00012467,0.0,0 STARLINK-4517,1 53390U 22097C   23265.84197699  .00012467  00000-0  79956-3 0  9990,2 53390  53.2159 199.2059 0000827  86.4606 273.6481 15.08859771 63123,6917.82,95.436,540.257,539.113,0.0
53390.0,STARLINK-4517,PAYLOAD,2023-09-23 02:33:59,15.08859578,9.84e-05,53.216,198.017,90.4713,269.6392,0.00056249,8.68e-05,0.0,0 STARLINK-4517,1 53390U 22097C   23266.10693457  .00008680  00000-0  56249-3 0  9995,2 53390  53.2160 198.0170 0000984  90.4713 269.6392 15.08859578 62360,6917.821,95.436,540.366,539.005,0.0
53390.0,STARLINK-4517,PAYLOAD,2023-09-23 18:27:50,15.08844201,0.0001116,53.2169,195.0477,83.0439,277.068,-8.6226e-05,-1.66e-05,0.0,0 STARLINK-4517,1 53390U 22097C   23266.76933653 -.00001660  00000-0 -86226-4 0  9994,2 53390  53.2169 195.0477 0001116  83.0439 277.0680 15.08844201 62468,6917.868,95.437,540.505,538.961,0.0
53390.0,STARLINK-4517,PAYLOAD,2023-09-24 02:24:46,15.08841787,0.0001285,53.2166,193.5565,96.1731,263.9407,-2.3958e-05,-6.69e-06,0.0,0 STARLINK-4517,1 53390U 22097C   23267.10053834 -.00000669  00000-0 -23958-4 0  9998,2 53390  53.2166 193.5565 0001285  96.1731 263.9407 15.08841787 63315,6917.875,95.437,540.629,538.851,0.0
53390.0,STARLINK-4517,PAYLOAD,2023-09-24 19:54:01,15.08838659,0.000138,53.2174,190.2863,86.4711,273.6439,1.9772e-05,2.7e-07,0.0,0 STARLINK-4517,1 53390U 22097C   23267.82918152  .00000027  00000-0  19772-4 0  9995,2 53390  53.2174 190.2863 0001380  86.4711 273.6439 15.08838659 63424,6917.884,95.438,540.704,538.795,0.0
53390.0,STARLINK-4517,PAYLOAD,2023-09-25 02:15:33,15.0884469,0.0001389,53.217,189.0964,93.7299,266.3852,0.00011127,1.484e-05,0.0,0 STARLINK-4517,1 53390U 22097C   23268.09413827  .00001484  00000-0  11127-3 0  9997,2 53390  53.2170 189.0964 0001389  93.7299 266.3852 15.08844690 62664,6917.866,95.437,540.692,538.77,0.0
53390.0,STARLINK-4517,PAYLOAD,2023-09-25 03:50:56,15.08854137,0.0001431,53.2173,188.7994,95.6665,264.449,0.00024956,3.688e-05,0.0,0 STARLINK-4517,1 53390U 22097C   23268.16037410  .00003688  00000-0  24956-3 0  9997,2 53390  53.2173 188.7994 0001431  95.6665 264.4490 15.08854137 62677,6917.837,95.437,540.692,538.712,0.0
53390.0,STARLINK-4517,PAYLOAD,2023-09-25 11:47:51,15.0885531,0.0001528,53.2171,187.3124,78.3903,281.7261,0.00037962,5.761e-05,0.0,0 STARLINK-4517,1 53390U 22097C   23268.49157386  .00005761  00000-0  37962-3 0  9993,2 53390  53.2171 187.3124 0001528  78.3903 281.7261 15.08855310 63522,6917.834,95.437,540.756,538.642,0.0
53390.0,STARLINK-4517,PAYLOAD,2023-09-26 03:41:42,15.08868887,0.0001493,53.2165,184.338,84.6386,275.4776,0.00057672,8.91e-05,0.0,0 STARLINK-4517,1 53390U 22097C   23269.15396367  .00008910  00000-0  57672-3 0  9990,2 53390  53.2165 184.3380 0001493  84.6386 275.4776 15.08868887 63627,6917.792,95.436,540.69,538.624,0.0
53390.0,STARLINK-4517,PAYLOAD,2023-09-27 01:57:07,15.08835232,0.0001568,53.2167,180.1736,88.6764,271.4408,-1.6671e-05,-5.53e-06,0.0,0 STARLINK-4517,1 53390U 22097C   23270.08133570 -.00000553  00000-0 -16671-4 0  9991,2 53390  53.2167 180.1736 0001568  88.6764 271.4408 15.08835232 62967,6917.895,95.438,540.845,538.675,0.0
53390.0,STARLINK-4517,PAYLOAD,2023-09-27 11:29:27,15.08818546,0.0001579,53.2157,178.3921,88.0259,272.0914,0.00025219,3.726e-05,0.0,0 STARLINK-4517,1 53390U 22097C   23270.47878554  .00003726  00000-0  25219-3 0  9992,2 53390  53.2157 178.3921 0001579  88.0259 272.0914 15.08818546 63820,6917.946,95.439,540.903,538.719,0.0
53390.0,STARLINK-4517,PAYLOAD,2023-09-28 00:12:32,15.08818808,0.0001473,53.2162,176.0102,107.188,252.9273,0.00047608,7.293e-05,0.0,0 STARLINK-4517,1 53390U 22097C   23271.00871031  .00007293  00000-0  47608-3 0  9994,2 53390  53.2162 176.0102 0001473 107.1880 252.9273 15.08818808 63903,6917.945,95.439,540.829,538.791,0.0
53390.0,STARLINK-4517,PAYLOAD,2023-09-28 17:41:47,15.08842132,0.000148,53.2166,172.7394,113.2533,246.8615,0.00066282,0.00010277,0.0,0 STARLINK-4517,1 53390U 22097C   23271.73735319  .00010277  00000-0  66282-3 0  9997,2 53390  53.2166 172.7394 0001480 113.2533 246.8615 15.08842132 63217,6917.874,95.437,540.763,538.715,0.0
53390.0,STARLINK-4517,PAYLOAD,2023-09-28 22:27:56,15.08855066,0.0001361,53.216,171.8497,101.6975,258.417,0.00098416,0.00015416,0.0,0 STARLINK-4517,1 53390U 22097C   23271.93607158  .00015416  00000-0  98416-3 0  9992,2 53390  53.2160 171.8497 0001361 101.6975 258.4170 15.08855066 64041,6917.834,95.437,540.641,538.758,0.0
53390.0,STARLINK-4517,PAYLOAD,2023-09-29 00:03:19,15.08860666,0.0001428,53.2163,171.5515,108.2339,251.8808,0.00111,0.00017432,0.0,0 STARLINK-4517,1 53390U 22097C   23272.00230981  .00017432  00000-0  11100-2 0  9991,2 53390  53.2163 171.5515 0001428 108.2339 251.8808 15.08860666 63252,6917.817,95.436,540.67,538.694,0.0
53390.0,STARLINK-4517,PAYLOAD,2023-09-29 03:14:05,15.08866756,0.0001438,53.2163,170.9564,109.785,250.3297,0.0011376,0.00017876,0.0,0 STARLINK-4517,1 53390U 22097C   23272.13478711  .00017876  00000-0  11376-2 0  9997,2 53390  53.2163 170.9564 0001438 109.7850 250.3297 15.08866756 64077,6917.799,95.436,540.658,538.669,0.0
53390.0,STARLINK-4517,PAYLOAD,2023-09-29 23:54:05,15.08858287,0.0001269,53.2161,167.0867,104.66,255.4533,0.00041084,6.26e-05,0.0,0 STARLINK-4517,1 53390U 22097C   23272.99590041  .00006260  00000-0  41084-3 0  9997,2 53390  53.2161 167.0867 0001269 104.6600 255.4533 15.08858287 63402,6917.824,95.436,540.567,538.812,0.0
53390.0,STARLINK-4517,PAYLOAD,2023-09-30 09:26:24,15.08847996,0.0001433,53.2163,165.3066,89.8816,270.234,3.1577e-05,2.15e-06,0.0,0 STARLINK-4517,1 53390U 22097C   23273.39334103  .00000215  00000-0  31577-4 0  9998,2 53390  53.2163 165.3066 0001433  89.8816 270.2340 15.08847996 63464,6917.856,95.437,540.712,538.73,0.0
53390.0,STARLINK-4517,PAYLOAD,2023-09-30 23:44:53,15.08839912,0.0001427,53.2166,162.6339,97.7497,262.3657,-0.00010288,-1.925e-05,0.0,0 STARLINK-4517,1 53390U 22097C   23273.98950568 -.00001925  00000-0 -10288-3 0  9998,2 53390  53.2166 162.6339 0001427  97.7497 262.3657 15.08839912 63558,6917.881,95.438,540.733,538.758,0.0
53390.0,STARLINK-4517,PAYLOAD,2023-10-01 09:17:11,15.08844851,0.0001485,53.2169,160.8493,101.6447,258.4712,6.4957e-05,7.46e-06,0.0,0 STARLINK-4517,1 53390U 22097C   23274.38694290  .00000746  00000-0  64957-4 0  9991,2 53390  53.2169 160.8493 0001485 101.6447 258.4712 15.08844851 64418,6917.866,95.437,540.758,538.703,0.0
53390.0,STARLINK-4517,PAYLOAD,2023-10-01 20:24:54,15.08844456,0.00015,53.2168,158.7681,106.9196,253.1961,0.00020731,3.013e-05,0.0,0 STARLINK-4517,1 53390U 22097C   23274.85062507  .00003013  00000-0  20731-3 0  9994,2 53390  53.2168 158.7681 0001500 106.9196 253.1961 15.08844456 64485,6917.867,95.437,540.769,538.694,0.0
53390.0,STARLINK-4517,PAYLOAD,2023-10-02 01:11:03,15.08850802,0.0001354,53.2166,157.8754,104.6956,255.4187,0.00039451,5.998e-05,0.0,0 STARLINK-4517,1 53390U 22097C   23275.04934242  .00005998  00000-0  39451-3 0  9993,2 53390  53.2166 157.8754 0001354 104.6956 255.4187 15.08850802 63712,6917.847,95.437,540.649,538.776,0.0
53390.0,STARLINK-4517,PAYLOAD,2023-10-02 09:07:59,15.08844682,0.0001466,53.2156,156.3872,93.7482,266.3677,0.00021068,3.067e-05,0.0,0 STARLINK-4517,1 53390U 22097C   23275.38054465  .00003067  00000-0  21068-3 0  9990,2 53390  53.2156 156.3872 0001466  93.7482 266.3677 15.08844682 63761,6917.866,95.437,540.745,538.717,0.0
53390.0,STARLINK-4517,PAYLOAD,2023-10-02 20:15:41,15.08838034,0.0001763,53.2155,154.3069,89.7966,270.3228,-7.2554e-07,-3e-06,0.0,0 STARLINK-4517,1 53390U 22097C   23275.84422757 -.00000300  00000-0 -72554-6 0  9992,2 53390  53.2155 154.3069 0001763  89.7966 270.3228 15.08838034 64636,6917.886,95.438,540.971,538.532,0.0
